[{"OBJECT_NAME":"STARLINK-6369","OBJECT_ID":"2023-099AY","EPOCH":"2026-03-09T22:00:01.999584","MEAN_MOTION":15.11990276,"ECCENTRICITY":0.00024259,"INCLINATION":43.0006,"RA_OF_ASC_NODE":221.4396,"ARG_OF_PERICENTER":272.2274,"MEAN_ANOMALY":92.7048,"EPHEMERIS_TYPE":0,"CLASSIFICATION_TYPE":"U","NORAD_CAT_ID":57374,"ELEMENT_SET_NO":999,"REV_AT_EPOCH":562,"BSTAR":0.0064958778,"MEAN_MOTION_DOT":0.00115097,"MEAN_MOTION_DDOT":0},{"OBJECT_NAME":"PSLV DEB","OBJECT_ID":"2001-049NA","EPOCH":"2026-03-08T15:04:56.759808","MEAN_MOTION":15.08740413,"ECCENTRICITY":0.00254054,"INCLINATION":98.314,"RA_OF_ASC_NODE":131.3874,"ARG_OF_PERICENTER":357.4644,"MEAN_ANOMALY":2.6449,"EPHEMERIS_TYPE":0,"CLASSIFICATION_TYPE":"U","NORAD_CAT_ID":27582,"ELEMENT_SET_NO":999,"REV_AT_EPOCH":27774,"BSTAR":0.00086862236,"MEAN_MOTION_DOT":0.0001368,"MEAN_MOTION_DDOT":0}]
